SL-4 R/B                
1 39679U 14021B   25359.29594769  .00013021  00000+0  30840-3 0  9991
2 39679  51.6088 339.5597 0100825 191.5683 168.2983 15.36956038644821
ALOS-2                  
1 39766U 14029A   25359.25512823  .00001853  00000+0  25502-3 0  9992
2 39766  97.9221  93.9230 0001380 101.0174 259.1193 14.79467994625862
YAOGAN-29               
1 41038U 15069A   25359.30285559  .00001165  00000+0  15046-3 0  9999
2 41038  98.0205  22.5139 0000904 162.4101 197.7144 14.82897743544854
ASTRO-H (HITOMI)        
1 41337U 16012A   25358.65961124  .00003659  00000+0  21730-3 0  9993
2 41337  30.9990 120.5213 0009692 298.1550  61.8109 15.09426021540880
HXMT (HUIYAN)           
1 42758U 17034A   25359.30674291  .00006358  00000+0  32952-3 0  9992
2 42758  43.0144  69.8849 0031242 125.9232 234.4521 15.16379722471246
CZ-2C R/B               
1 43521U 18054D   25358.96486301  .00118228  00000+0  69804-3 0  9994
2 43521  35.1337  97.8390 0014674 265.6717  94.2340 15.76639870416983
SAOCOM 1A               
1 43641U 18076A   25359.29638205  .00000016  00000+0  85031-5 0  9997
2 43641  97.8844 183.5352 0001413  81.5534 278.5840 14.82145592390346
H-2A R/B                
1 43682U 18084L   25359.12226871  .00019792  00000+0  52852-3 0  9999
2 43682  98.8769 195.7722 0026546 282.9906  76.8370 15.37814232394300
SAOCOM 1B               
1 46265U 20059A   25359.26013527  .00000189  00000+0  30273-4 0  9995
2 46265  97.8838 182.5994 0001408  86.7543 273.3831 14.82148487287722
CSS (TIANHE)            
1 48274U 21035A   25359.20293021  .00019600  00000+0  24183-3 0  9995
2 48274  41.4684 301.0153 0008299 140.7074 219.4368 15.59668525265972
COSMOS 2550             
1 48865U 21056A   25359.31111775 -.00000141  00000+0  15254-5 0  9993
2 48865  67.1451 265.9088 0008335 270.5162  89.5038 15.33798493252056
CZ-2C R/B               
1 52794U 22058K   25358.67847865  .00027249  00000+0  47985-3 0  9997
2 52794  50.1922 342.6388 0044643 247.7057 111.9175 15.49077723198485
