CCSDS_OMM_VERS = 2.0
CREATION_DATE  = 
ORIGINATOR     = 

OBJECT_NAME    = SL-4 R/B
OBJECT_ID      = 2014-021B
CENTER_NAME    = EARTH
REF_FRAME      = TEME
TIME_SYSTEM    = UTC
MEAN_ELEMENT_THEORY = SGP/SGP4

EPOCH          = 2025-12-25T07:06:09.880416
MEAN_MOTION    = 15.36956038
ECCENTRICITY   = .01008251
INCLINATION    = 51.6088
RA_OF_ASC_NODE = 339.5597
ARG_OF_PERICENTER = 191.5683
MEAN_ANOMALY   = 168.2983

EPHEMERIS_TYPE = 0
CLASSIFICATION_TYPE = U
NORAD_CAT_ID   = 39679
ELEMENT_SET_NO = 999
REV_AT_EPOCH   = 64482
BSTAR          = .30839678E-3
MEAN_MOTION_DOT = .13021E-3
MEAN_MOTION_DDOT = 0

CCSDS_OMM_VERS = 2.0
CREATION_DATE  = 
ORIGINATOR     = 

OBJECT_NAME    = ALOS-2
OBJECT_ID      = 2014-029A
CENTER_NAME    = EARTH
REF_FRAME      = TEME
TIME_SYSTEM    = UTC
MEAN_ELEMENT_THEORY = SGP/SGP4

EPOCH          = 2025-12-25T06:07:23.079072
MEAN_MOTION    = 14.79467994
ECCENTRICITY   = .00013803
INCLINATION    = 97.9221
RA_OF_ASC_NODE = 93.9230
ARG_OF_PERICENTER = 101.0174
MEAN_ANOMALY   = 259.1193

EPHEMERIS_TYPE = 0
CLASSIFICATION_TYPE = U
NORAD_CAT_ID   = 39766
ELEMENT_SET_NO = 999
REV_AT_EPOCH   = 62586
BSTAR          = .25501979E-3
MEAN_MOTION_DOT = .1853E-4
MEAN_MOTION_DDOT = 0

CCSDS_OMM_VERS = 2.0
CREATION_DATE  = 
ORIGINATOR     = 

OBJECT_NAME    = YAOGAN-29
OBJECT_ID      = 2015-069A
CENTER_NAME    = EARTH
REF_FRAME      = TEME
TIME_SYSTEM    = UTC
MEAN_ELEMENT_THEORY = SGP/SGP4

EPOCH          = 2025-12-25T07:16:06.722976
MEAN_MOTION    = 14.82897743
ECCENTRICITY   = .00009045
INCLINATION    = 98.0205
RA_OF_ASC_NODE = 22.5139
ARG_OF_PERICENTER = 162.4101
MEAN_ANOMALY   = 197.7144

EPHEMERIS_TYPE = 0
CLASSIFICATION_TYPE = U
NORAD_CAT_ID   = 41038
ELEMENT_SET_NO = 999
REV_AT_EPOCH   = 54485
BSTAR          = .1504607E-3
MEAN_MOTION_DOT = .1165E-4
MEAN_MOTION_DDOT = 0

CCSDS_OMM_VERS = 2.0
CREATION_DATE  = 
ORIGINATOR     = 

OBJECT_NAME    = ASTRO-H (HITOMI)
OBJECT_ID      = 2016-012A
CENTER_NAME    = EARTH
REF_FRAME      = TEME
TIME_SYSTEM    = UTC
MEAN_ELEMENT_THEORY = SGP/SGP4

EPOCH          = 2025-12-24T15:49:50.411136
MEAN_MOTION    = 15.09426021
ECCENTRICITY   = .00096922
INCLINATION    = 30.9990
RA_OF_ASC_NODE = 120.5213
ARG_OF_PERICENTER = 298.1550
MEAN_ANOMALY   = 61.8109

EPHEMERIS_TYPE = 0
CLASSIFICATION_TYPE = U
NORAD_CAT_ID   = 41337
ELEMENT_SET_NO = 999
REV_AT_EPOCH   = 54088
BSTAR          = .21729551E-3
MEAN_MOTION_DOT = .3659E-4
MEAN_MOTION_DDOT = 0

CCSDS_OMM_VERS = 2.0
CREATION_DATE  = 
ORIGINATOR     = 

OBJECT_NAME    = HXMT (HUIYAN)
OBJECT_ID      = 2017-034A
CENTER_NAME    = EARTH
REF_FRAME      = TEME
TIME_SYSTEM    = UTC
MEAN_ELEMENT_THEORY = SGP/SGP4

EPOCH          = 2025-12-25T07:21:42.587424
MEAN_MOTION    = 15.16379722
ECCENTRICITY   = .00312424
INCLINATION    = 43.0144
RA_OF_ASC_NODE = 69.8849
ARG_OF_PERICENTER = 125.9232
MEAN_ANOMALY   = 234.4521

EPHEMERIS_TYPE = 0
CLASSIFICATION_TYPE = U
NORAD_CAT_ID   = 42758
ELEMENT_SET_NO = 999
REV_AT_EPOCH   = 47124
BSTAR          = .32952287E-3
MEAN_MOTION_DOT = .6358E-4
MEAN_MOTION_DDOT = 0

CCSDS_OMM_VERS = 2.0
CREATION_DATE  = 
ORIGINATOR     = 

OBJECT_NAME    = CZ-2C R/B
OBJECT_ID      = 2018-054D
CENTER_NAME    = EARTH
REF_FRAME      = TEME
TIME_SYSTEM    = UTC
MEAN_ELEMENT_THEORY = SGP/SGP4

EPOCH          = 2025-12-24T23:09:24.164064
MEAN_MOTION    = 15.76639870
ECCENTRICITY   = .00146741
INCLINATION    = 35.1337
RA_OF_ASC_NODE = 97.8390
ARG_OF_PERICENTER = 265.6717
MEAN_ANOMALY   = 94.2340

EPHEMERIS_TYPE = 0
CLASSIFICATION_TYPE = U
NORAD_CAT_ID   = 43521
ELEMENT_SET_NO = 999
REV_AT_EPOCH   = 41698
BSTAR          = .69803782E-3
MEAN_MOTION_DOT = .118228E-2
MEAN_MOTION_DDOT = 0

CCSDS_OMM_VERS = 2.0
CREATION_DATE  = 
ORIGINATOR     = 

OBJECT_NAME    = SAOCOM 1A
OBJECT_ID      = 2018-076A
CENTER_NAME    = EARTH
REF_FRAME      = TEME
TIME_SYSTEM    = UTC
MEAN_ELEMENT_THEORY = SGP/SGP4

EPOCH          = 2025-12-25T07:06:47.409120
MEAN_MOTION    = 14.82145592
ECCENTRICITY   = .00014137
INCLINATION    = 97.8844
RA_OF_ASC_NODE = 183.5352
ARG_OF_PERICENTER = 81.5534
MEAN_ANOMALY   = 278.5840

EPHEMERIS_TYPE = 0
CLASSIFICATION_TYPE = U
NORAD_CAT_ID   = 43641
ELEMENT_SET_NO = 999
REV_AT_EPOCH   = 39034
BSTAR          = .8503131E-5
MEAN_MOTION_DOT = .16E-6
MEAN_MOTION_DDOT = 0

CCSDS_OMM_VERS = 2.0
CREATION_DATE  = 
ORIGINATOR     = 

OBJECT_NAME    = H-2A R/B
OBJECT_ID      = 2018-084L
CENTER_NAME    = EARTH
REF_FRAME      = TEME
TIME_SYSTEM    = UTC
MEAN_ELEMENT_THEORY = SGP/SGP4

EPOCH          = 2025-12-25T02:56:04.016544
MEAN_MOTION    = 15.37814232
ECCENTRICITY   = .00265467
INCLINATION    = 98.8769
RA_OF_ASC_NODE = 195.7722
ARG_OF_PERICENTER = 282.9906
MEAN_ANOMALY   = 76.8370

EPHEMERIS_TYPE = 0
CLASSIFICATION_TYPE = U
NORAD_CAT_ID   = 43682
ELEMENT_SET_NO = 999
REV_AT_EPOCH   = 39430
BSTAR          = .52851596E-3
MEAN_MOTION_DOT = .19792E-3
MEAN_MOTION_DDOT = 0

CCSDS_OMM_VERS = 2.0
CREATION_DATE  = 
ORIGINATOR     = 

OBJECT_NAME    = SAOCOM 1B
OBJECT_ID      = 2020-059A
CENTER_NAME    = EARTH
REF_FRAME      = TEME
TIME_SYSTEM    = UTC
MEAN_ELEMENT_THEORY = SGP/SGP4

EPOCH          = 2025-12-25T06:14:35.687328
MEAN_MOTION    = 14.82148487
ECCENTRICITY   = .00014083
INCLINATION    = 97.8838
RA_OF_ASC_NODE = 182.5994
ARG_OF_PERICENTER = 86.7543
MEAN_ANOMALY   = 273.3831

EPHEMERIS_TYPE = 0
CLASSIFICATION_TYPE = U
NORAD_CAT_ID   = 46265
ELEMENT_SET_NO = 999
REV_AT_EPOCH   = 28772
BSTAR          = .302729E-4
MEAN_MOTION_DOT = .189E-5
MEAN_MOTION_DDOT = 0

CCSDS_OMM_VERS = 2.0
CREATION_DATE  = 
ORIGINATOR     = 

OBJECT_NAME    = CSS (TIANHE)
OBJECT_ID      = 2021-035A
CENTER_NAME    = EARTH
REF_FRAME      = TEME
TIME_SYSTEM    = UTC
MEAN_ELEMENT_THEORY = SGP/SGP4

EPOCH          = 2025-12-25T04:52:13.170144
MEAN_MOTION    = 15.59668525
ECCENTRICITY   = .0008299
INCLINATION    = 41.4684
RA_OF_ASC_NODE = 301.0153
ARG_OF_PERICENTER = 140.7074
MEAN_ANOMALY   = 219.4368

EPHEMERIS_TYPE = 0
CLASSIFICATION_TYPE = U
NORAD_CAT_ID   = 48274
ELEMENT_SET_NO = 999
REV_AT_EPOCH   = 26597
BSTAR          = .24182625E-3
MEAN_MOTION_DOT = .196E-3
MEAN_MOTION_DDOT = 0

CCSDS_OMM_VERS = 2.0
CREATION_DATE  = 
ORIGINATOR     = 

OBJECT_NAME    = COSMOS 2550
OBJECT_ID      = 2021-056A
CENTER_NAME    = EARTH
REF_FRAME      = TEME
TIME_SYSTEM    = UTC
MEAN_ELEMENT_THEORY = SGP/SGP4

EPOCH          = 2025-12-25T07:28:00.573600
MEAN_MOTION    = 15.33798493
ECCENTRICITY   = .00083355
INCLINATION    = 67.1451
RA_OF_ASC_NODE = 265.9088
ARG_OF_PERICENTER = 270.5162
MEAN_ANOMALY   = 89.5038

EPHEMERIS_TYPE = 0
CLASSIFICATION_TYPE = U
NORAD_CAT_ID   = 48865
ELEMENT_SET_NO = 999
REV_AT_EPOCH   = 25205
BSTAR          = .1525424E-5
MEAN_MOTION_DOT = -.141E-5
MEAN_MOTION_DDOT = 0

CCSDS_OMM_VERS = 2.0
CREATION_DATE  = 
ORIGINATOR     = 

OBJECT_NAME    = CZ-2C R/B
OBJECT_ID      = 2022-058K
CENTER_NAME    = EARTH
REF_FRAME      = TEME
TIME_SYSTEM    = UTC
MEAN_ELEMENT_THEORY = SGP/SGP4

EPOCH          = 2025-12-24T16:17:00.555360
MEAN_MOTION    = 15.49077723
ECCENTRICITY   = .00446437
INCLINATION    = 50.1922
RA_OF_ASC_NODE = 342.6388
ARG_OF_PERICENTER = 247.7057
MEAN_ANOMALY   = 111.9175

EPHEMERIS_TYPE = 0
CLASSIFICATION_TYPE = U
NORAD_CAT_ID   = 52794
ELEMENT_SET_NO = 999
REV_AT_EPOCH   = 19848
BSTAR          = .47985004E-3
MEAN_MOTION_DOT = .27249E-3
MEAN_MOTION_DDOT = 0

